{
  "type": "FeatureCollection",
  "features": [
    {
      "type": "Feature",
      "properties": {
        "name": "구월동",
        "source": "https://api.openstreetmap.org/api/0.6/relation/8857846/full.json",
        "osm_relation": 8857846,
        "osm_version": 5,
        "osm_timestamp": "2023-06-25T10:38:57Z",
        "sourceSha256": "c57dc0d76e902fed306e4f4bb2aed5a5c106d8eeeee19496c52c74f9494e7d7e",
        "retrievedAt": "2026-09-26T08:09:56.453756+00:00",
        "license": "ODbL 1.0",
        "attribution": "© OpenStreetMap contributors",
        "note": "OSM legal-dong outline; not an official cadastral boundary survey"
      },
      "geometry": {
        "type": "Polygon",
        "coordinates": [
          [
            [
              126.7146242,
              37.4607438
            ],
            [
              126.720069,
              37.4607225
            ],
            [
              126.7201495,
              37.4610653
            ],
            [
              126.7204124,
              37.4609418
            ],
            [
              126.7218288,
              37.4606675
            ],
            [
              126.7218116,
              37.4603
            ],
            [
              126.7216355,
              37.4557488
            ],
            [
              126.7193288,
              37.4558808
            ],
            [
              126.7189264,
              37.4522483
            ],
            [
              126.717698,
              37.4404554
            ],
            [
              126.7174244,
              37.4402254
            ],
            [
              126.7168236,
              37.4392585
            ],
            [
              126.7163247,
              37.4384407
            ],
            [
              126.715917,
              37.437921
            ],
            [
              126.7156112,
              37.4376996
            ],
            [
              126.7153752,
              37.4376144
            ],
            [
              126.7151177,
              37.437329
            ],
            [
              126.7145973,
              37.4370223
            ],
            [
              126.7139751,
              37.4368477
            ],
            [
              126.7136961,
              37.4371373
            ],
            [
              126.7127788,
              37.4376101
            ],
            [
              126.7122424,
              37.4376229
            ],
            [
              126.7118293,
              37.4374312
            ],
            [
              126.7114806,
              37.4373929
            ],
            [
              126.7111856,
              37.4371629
            ],
            [
              126.7111909,
              37.436754
            ],
            [
              126.710971,
              37.4364558
            ],
            [
              126.7110032,
              37.4360213
            ],
            [
              126.7107886,
              37.4357104
            ],
            [
              126.7100859,
              37.4353781
            ],
            [
              126.7093188,
              37.4349777
            ],
            [
              126.7089808,
              37.4346881
            ],
            [
              126.7085034,
              37.4343047
            ],
            [
              126.7077738,
              37.4342919
            ],
            [
              126.7075217,
              37.4343856
            ],
            [
              126.7071086,
              37.4343686
            ],
            [
              126.7067017,
              37.4340681
            ],
            [
              126.7061321,
              37.4354599
            ],
            [
              126.7053849,
              37.4367518
            ],
            [
              126.7053387,
              37.4373513
            ],
            [
              126.705309,
              37.4386629
            ],
            [
              126.7029164,
              37.4387782
            ],
            [
              126.7027981,
              37.4388606
            ],
            [
              126.7027257,
              37.4390829
            ],
            [
              126.7024937,
              37.4396813
            ],
            [
              126.7025004,
              37.4397322
            ],
            [
              126.7026508,
              37.4413343
            ],
            [
              126.7029272,
              37.4431983
            ],
            [
              126.7016175,
              37.4432907
            ],
            [
              126.7002515,
              37.4435896
            ],
            [
              126.7000368,
              37.4436286
            ],
            [
              126.6979593,
              37.4442023
            ],
            [
              126.6961077,
              37.4447402
            ],
            [
              126.6949886,
              37.4455965
            ],
            [
              126.6949198,
              37.4455302
            ],
            [
              126.6932585,
              37.4466813
            ],
            [
              126.6937894,
              37.4468374
            ],
            [
              126.6941678,
              37.4472041
            ],
            [
              126.6941482,
              37.4475709
            ],
            [
              126.6935928,
              37.4479533
            ],
            [
              126.6928664,
              37.4481818
            ],
            [
              126.6930526,
              37.4485839
            ],
            [
              126.6933743,
              37.4498841
            ],
            [
              126.6925639,
              37.4499492
            ],
            [
              126.6926546,
              37.4505919
            ],
            [
              126.6927732,
              37.4514321
            ],
            [
              126.6943406,
              37.45133
            ],
            [
              126.6945159,
              37.4533987
            ],
            [
              126.6947428,
              37.4538662
            ],
            [
              126.6949794,
              37.4545464
            ],
            [
              126.6951169,
              37.4557057
            ],
            [
              126.6962027,
              37.4555104
            ],
            [
              126.6977584,
              37.4551314
            ],
            [
              126.6989601,
              37.4547907
            ],
            [
              126.7002636,
              37.4543137
            ],
            [
              126.7005748,
              37.4543052
            ],
            [
              126.7017925,
              37.4546033
            ],
            [
              126.7021143,
              37.4568219
            ],
            [
              126.7035359,
              37.4567197
            ],
            [
              126.7086573,
              37.45697
            ],
            [
              126.7127573,
              37.4571882
            ],
            [
              126.7125401,
              37.4597729
            ],
            [
              126.7146859,
              37.4598836
            ],
            [
              126.7146242,
              37.4607438
            ]
          ]
        ]
      }
    }
  ]
}
